OTTER PUP               
1 56933U 23084B   26116.97883426  .01286561  25125-5  83875-3 0  9999
2 56933  97.5619 278.8046 0006672 273.3667  86.6857 16.17249458161190
GEISAT PRECURSOR        
1 56934U 23084C   26117.02183937  .00009348  00000+0  28742-3 0  9993
2 56934  97.6142 256.3433 0006805 155.0967 205.0604 15.33893882159682
BLACKJACK ACES-3        
1 56950U 23084U   26117.09600620  .00006282  00000+0  30933-3 0  9990
2 56950  97.6127 251.9303 0003743 152.2054 207.9381 15.18332671159415
BLACKJACK ACES-2        
1 56955U 23084Z   26117.10150023  .00008157  00000+0  40204-3 0  9999
2 56955  97.6124 252.0241 0002820 123.6040 236.5463 15.18208232159427
BLACKJACK ACES-1        
1 56956U 23084AA  26117.08982897  .00007996  00000+0  39167-3 0  9995
2 56956  97.6112 251.7916 0002826 107.3448 252.8095 15.18427533109140
ION SCV-011             
1 56957U 23084AB  26117.07178036  .00005981  00000+0  21985-3 0  9998
2 56957  98.1384 299.6361 0006703 205.8864 154.2039 15.28322405158002
GHOST-3                 
1 56958U 23084AC  26117.12888743  .00021312  00000+0  43543-3 0  9998
2 56958  97.6144 263.0521 0007551 120.2709 239.9288 15.46157427160127
TOMORROW-R2             
1 56962U 23084AG  26117.16175970  .00182261  00000+0  82343-3 0  9990
2 56962  97.5926 275.1332 0001777 107.4947 252.6516 15.83505801160937
AFR-1                   
1 56964U 23084AJ  26117.16335433  .00006075  00000+0  22427-3 0  9999
2 56964  97.6189 252.6681 0011339 152.3163 207.8682 15.28090741159432
METEOR-M2 3             
1 57166U 23091A   26117.15823828  .00000010  00000+0  23307-4 0  9993
2 57166  98.6122 173.1701 0003228 334.6522  25.4498 14.24042314147251
UMKA 1 (RS40S)          
1 57172U 23091G   26117.15750556  .00007534  00000+0  35001-3 0  9998
2 57172  97.5094 176.0634 0011276 300.7050  59.3074 15.20235282156254
2023-091H               
1 57173U 23091H   26117.17062926  .00014195  00000+0  52885-3 0  9998
2 57173  97.5088 179.9842 0008352 295.8786  64.1591 15.27536891156516
2023-091J               
1 57174U 23091J   26117.15674485  .00004780  00000+0  26960-3 0  9990
2 57174  97.5103 170.9820 0012280 330.1712  29.8818 15.13581129155911
CUBEBEL 2 (EU11S)       
1 57175U 23091K   26117.18708024  .00016557  00000+0  60834-3 0  9994
2 57175  97.5091 179.9877 0008427 297.5767  62.4615 15.27959411156516
SITRO-AIS 5 (KATYS)     
1 57176U 23091L   26117.14914669  .00014566  00000+0  53019-3 0  9990
2 57176  97.5099 180.6011 0009893 282.5991  77.4142 15.28286861156542
ZORKIY-2M 1             
1 57177U 23091M   26117.14536656  .00008282  00000+0  38425-3 0  9999
2 57177  97.5134 176.2884 0011837 297.0533  62.9494 15.20239733156240
