[{"OBJECT_NAME":"OTTER PUP","OBJECT_ID":"2023-084B","EPOCH":"2026-04-26T23:29:31.280064","MEAN_MOTION":16.17249458,"ECCENTRICITY":0.0006672,"INCLINATION":97.5619,"RA_OF_ASC_NODE":278.8046,"ARG_OF_PERICENTER":273.3667,"MEAN_ANOMALY":86.6857,"EPHEMERIS_TYPE":0,"CLASSIFICATION_TYPE":"U","NORAD_CAT_ID":56933,"ELEMENT_SET_NO":999,"REV_AT_EPOCH":16119,"BSTAR":0.00083875,"MEAN_MOTION_DOT":0.01286561,"MEAN_MOTION_DDOT":2.5125e-6},{"OBJECT_NAME":"GEISAT PRECURSOR","OBJECT_ID":"2023-084C","EPOCH":"2026-04-27T00:31:26.921568","MEAN_MOTION":15.33893882,"ECCENTRICITY":0.0006805,"INCLINATION":97.6142,"RA_OF_ASC_NODE":256.3433,"ARG_OF_PERICENTER":155.0967,"MEAN_ANOMALY":205.0604,"EPHEMERIS_TYPE":0,"CLASSIFICATION_TYPE":"U","NORAD_CAT_ID":56934,"ELEMENT_SET_NO":999,"REV_AT_EPOCH":15968,"BSTAR":0.00028742,"MEAN_MOTION_DOT":9.348e-5,"MEAN_MOTION_DDOT":0},{"OBJECT_NAME":"BLACKJACK ACES-3","OBJECT_ID":"2023-084U","EPOCH":"2026-04-27T02:18:14.935680","MEAN_MOTION":15.18332671,"ECCENTRICITY":0.0003743,"INCLINATION":97.6127,"RA_OF_ASC_NODE":251.9303,"ARG_OF_PERICENTER":152.2054,"MEAN_ANOMALY":207.9381,"EPHEMERIS_TYPE":0,"CLASSIFICATION_TYPE":"U","NORAD_CAT_ID":56950,"ELEMENT_SET_NO":999,"REV_AT_EPOCH":15941,"BSTAR":0.00030933,"MEAN_MOTION_DOT":6.282e-5,"MEAN_MOTION_DDOT":0},{"OBJECT_NAME":"BLACKJACK ACES-2","OBJECT_ID":"2023-084Z","EPOCH":"2026-04-27T02:26:09.619872","MEAN_MOTION":15.18208232,"ECCENTRICITY":0.000282,"INCLINATION":97.6124,"RA_OF_ASC_NODE":252.0241,"ARG_OF_PERICENTER":123.604,"MEAN_ANOMALY":236.5463,"EPHEMERIS_TYPE":0,"CLASSIFICATION_TYPE":"U","NORAD_CAT_ID":56955,"ELEMENT_SET_NO":999,"REV_AT_EPOCH":15942,"BSTAR":0.00040204,"MEAN_MOTION_DOT":8.157e-5,"MEAN_MOTION_DDOT":0},{"OBJECT_NAME":"BLACKJACK ACES-1","OBJECT_ID":"2023-084AA","EPOCH":"2026-04-27T02:09:21.223008","MEAN_MOTION":15.18427533,"ECCENTRICITY":0.0002826,"INCLINATION":97.6112,"RA_OF_ASC_NODE":251.7916,"ARG_OF_PERICENTER":107.3448,"MEAN_ANOMALY":252.8095,"EPHEMERIS_TYPE":0,"CLASSIFICATION_TYPE":"U","NORAD_CAT_ID":56956,"ELEMENT_SET_NO":999,"REV_AT_EPOCH":10914,"BSTAR":0.00039167,"MEAN_MOTION_DOT":7.996e-5,"MEAN_MOTION_DDOT":0},{"OBJECT_NAME":"ION SCV-011","OBJECT_ID":"2023-084AB","EPOCH":"2026-04-27T01:43:21.823104","MEAN_MOTION":15.28322405,"ECCENTRICITY":0.0006703,"INCLINATION":98.1384,"RA_OF_ASC_NODE":299.6361,"ARG_OF_PERICENTER":205.8864,"MEAN_ANOMALY":154.2039,"EPHEMERIS_TYPE":0,"CLASSIFICATION_TYPE":"U","NORAD_CAT_ID":56957,"ELEMENT_SET_NO":999,"REV_AT_EPOCH":15800,"BSTAR":0.00021985,"MEAN_MOTION_DOT":5.981e-5,"MEAN_MOTION_DDOT":0},{"OBJECT_NAME":"GHOST-3","OBJECT_ID":"2023-084AC","EPOCH":"2026-04-27T03:05:35.873952","MEAN_MOTION":15.46157427,"ECCENTRICITY":0.0007551,"INCLINATION":97.6144,"RA_OF_ASC_NODE":263.0521,"ARG_OF_PERICENTER":120.2709,"MEAN_ANOMALY":239.9288,"EPHEMERIS_TYPE":0,"CLASSIFICATION_TYPE":"U","NORAD_CAT_ID":56958,"ELEMENT_SET_NO":999,"REV_AT_EPOCH":16012,"BSTAR":0.00043543,"MEAN_MOTION_DOT":0.00021312,"MEAN_MOTION_DDOT":0},{"OBJECT_NAME":"TOMORROW-R2","OBJECT_ID":"2023-084AG","EPOCH":"2026-04-27T03:52:56.038080","MEAN_MOTION":15.83505801,"ECCENTRICITY":0.0001777,"INCLINATION":97.5926,"RA_OF_ASC_NODE":275.1332,"ARG_OF_PERICENTER":107.4947,"MEAN_ANOMALY":252.6516,"EPHEMERIS_TYPE":0,"CLASSIFICATION_TYPE":"U","NORAD_CAT_ID":56962,"ELEMENT_SET_NO":999,"REV_AT_EPOCH":16093,"BSTAR":0.00082343,"MEAN_MOTION_DOT":0.00182261,"MEAN_MOTION_DDOT":0},{"OBJECT_NAME":"AFR-1","OBJECT_ID":"2023-084AJ","EPOCH":"2026-04-27T03:55:13.814112","MEAN_MOTION":15.28090741,"ECCENTRICITY":0.0011339,"INCLINATION":97.6189,"RA_OF_ASC_NODE":252.6681,"ARG_OF_PERICENTER":152.3163,"MEAN_ANOMALY":207.8682,"EPHEMERIS_TYPE":0,"CLASSIFICATION_TYPE":"U","NORAD_CAT_ID":56964,"ELEMENT_SET_NO":999,"REV_AT_EPOCH":15943,"BSTAR":0.00022427,"MEAN_MOTION_DOT":6.075e-5,"MEAN_MOTION_DDOT":0},{"OBJECT_NAME":"METEOR-M2 3","OBJECT_ID":"2023-091A","EPOCH":"2026-04-27T03:47:51.787392","MEAN_MOTION":14.24042314,"ECCENTRICITY":0.0003228,"INCLINATION":98.6122,"RA_OF_ASC_NODE":173.1701,"ARG_OF_PERICENTER":334.6522,"MEAN_ANOMALY":25.4498,"EPHEMERIS_TYPE":0,"CLASSIFICATION_TYPE":"U","NORAD_CAT_ID":57166,"ELEMENT_SET_NO":999,"REV_AT_EPOCH":14725,"BSTAR":2.3307e-5,"MEAN_MOTION_DOT":1.0e-7,"MEAN_MOTION_DDOT":0},{"OBJECT_NAME":"UMKA 1 (RS40S)","OBJECT_ID":"2023-091G","EPOCH":"2026-04-27T03:46:48.480384","MEAN_MOTION":15.20235282,"ECCENTRICITY":0.0011276,"INCLINATION":97.5094,"RA_OF_ASC_NODE":176.0634,"ARG_OF_PERICENTER":300.705,"MEAN_ANOMALY":59.3074,"EPHEMERIS_TYPE":0,"CLASSIFICATION_TYPE":"U","NORAD_CAT_ID":57172,"ELEMENT_SET_NO":999,"REV_AT_EPOCH":15625,"BSTAR":0.00035001,"MEAN_MOTION_DOT":7.534e-5,"MEAN_MOTION_DDOT":0},{"OBJECT_NAME":"2023-091H","OBJECT_ID":"2023-091H","EPOCH":"2026-04-27T04:05:42.368064","MEAN_MOTION":15.27536891,"ECCENTRICITY":0.0008352,"INCLINATION":97.5088,"RA_OF_ASC_NODE":179.9842,"ARG_OF_PERICENTER":295.8786,"MEAN_ANOMALY":64.1591,"EPHEMERIS_TYPE":0,"CLASSIFICATION_TYPE":"U","NORAD_CAT_ID":57173,"ELEMENT_SET_NO":999,"REV_AT_EPOCH":15651,"BSTAR":0.00052885,"MEAN_MOTION_DOT":0.00014195,"MEAN_MOTION_DDOT":0},{"OBJECT_NAME":"2023-091J","OBJECT_ID":"2023-091J","EPOCH":"2026-04-27T03:45:42.755040","MEAN_MOTION":15.13581129,"ECCENTRICITY":0.001228,"INCLINATION":97.5103,"RA_OF_ASC_NODE":170.982,"ARG_OF_PERICENTER":330.1712,"MEAN_ANOMALY":29.8818,"EPHEMERIS_TYPE":0,"CLASSIFICATION_TYPE":"U","NORAD_CAT_ID":57174,"ELEMENT_SET_NO":999,"REV_AT_EPOCH":15591,"BSTAR":0.0002696,"MEAN_MOTION_DOT":4.78e-5,"MEAN_MOTION_DDOT":0},{"OBJECT_NAME":"CUBEBEL 2 (EU11S)","OBJECT_ID":"2023-091K","EPOCH":"2026-04-27T04:29:23.732736","MEAN_MOTION":15.27959411,"ECCENTRICITY":0.0008427,"INCLINATION":97.5091,"RA_OF_ASC_NODE":179.9877,"ARG_OF_PERICENTER":297.5767,"MEAN_ANOMALY":62.4615,"EPHEMERIS_TYPE":0,"CLASSIFICATION_TYPE":"U","NORAD_CAT_ID":57175,"ELEMENT_SET_NO":999,"REV_AT_EPOCH":15651,"BSTAR":0.00060834,"MEAN_MOTION_DOT":0.00016557,"MEAN_MOTION_DDOT":0},{"OBJECT_NAME":"SITRO-AIS 5 (KATYS)","OBJECT_ID":"2023-091L","EPOCH":"2026-04-27T03:34:46.274016","MEAN_MOTION":15.28286861,"ECCENTRICITY":0.0009893,"INCLINATION":97.5099,"RA_OF_ASC_NODE":180.6011,"ARG_OF_PERICENTER":282.5991,"MEAN_ANOMALY":77.4142,"EPHEMERIS_TYPE":0,"CLASSIFICATION_TYPE":"U","NORAD_CAT_ID":57176,"ELEMENT_SET_NO":999,"REV_AT_EPOCH":15654,"BSTAR":0.00053019,"MEAN_MOTION_DOT":0.00014566,"MEAN_MOTION_DDOT":0},{"OBJECT_NAME":"ZORKIY-2M 1","OBJECT_ID":"2023-091M","EPOCH":"2026-04-27T03:29:19.670784","MEAN_MOTION":15.20239733,"ECCENTRICITY":0.0011837,"INCLINATION":97.5134,"RA_OF_ASC_NODE":176.2884,"ARG_OF_PERICENTER":297.0533,"MEAN_ANOMALY":62.9494,"EPHEMERIS_TYPE":0,"CLASSIFICATION_TYPE":"U","NORAD_CAT_ID":57177,"ELEMENT_SET_NO":999,"REV_AT_EPOCH":15624,"BSTAR":0.00038425,"MEAN_MOTION_DOT":8.282e-5,"MEAN_MOTION_DDOT":0}]
